STARLINK-31580          
1 59434U 24065P   24140.34027431 -.00076275  00000+0 -19255-2 0  9999
2 59434  53.1601 120.3773 0001421  17.8549 342.2506 15.39469274  7759
STARLINK-31696          
1 59435U 24065Q   24140.31704514 -.00019956  00000+0 -49074-3 0  9997
2 59435  53.1582 120.2289 0001136  61.7984 298.3136 15.39588282  7754
STARLINK-31700          
1 59436U 24065R   24140.24250186 -.00011830  00000+0 -28646-3 0  9996
2 59436  53.1586 120.4730 0001046  88.1061 272.0064 15.39596668  7746
STARLINK-31706          
1 59437U 24065S   24140.33097037 -.00008188  00000+0 -19507-3 0  9999
2 59437  53.1598 120.3152 0001159 100.7586 259.3549 15.39601452  7750
STARLINK-31711          
1 59438U 24065T   24140.24284409 -.00005250  00000+0 -12145-3 0  9999
2 59438  53.1578 120.4767 0001090 109.6252 250.4871 15.39600396  7749
STARLINK-31708          
1 59439U 24065U   24140.23322590 -.00000794  00000+0 -98788-5 0  9990
2 59439  53.1591 120.4123 0001482  72.8118 287.3049 15.39603255  7741
STARLINK-31682          
1 59440U 24065V   24140.58334491 -.00207068  00000+0 -13924-2 0  9992
2 59440  53.1537 111.5305 0001043 108.2811  25.8398 15.75032836  6059
STARLINK-31693          
1 59441U 24065W   24140.22426530 -.00003802  00000+0 -85203-4 0  9991
2 59441  53.1587 120.3550 0001199 111.9795 248.1338 15.39590734  7746
STARLINK-31617          
1 59455U 24068A   24140.48502340 -.00015018  00000+0 -35349-3 0  9998
2 59455  43.0014 187.8501 0002264 240.4515 119.6116 15.40652620  7358
STARLINK-31622          
1 59456U 24068B   24140.47157489  .00001394  00000+0  40641-4 0  9990
2 59456  42.9988 187.7460 0001286 239.8813 120.1916 15.40687520  7358
STARLINK-31319          
1 59457U 24068C   24140.50069885 -.00015819  00000+0 -37259-3 0  9996
2 59457  42.9986 187.9729 0001289 277.0649  83.0061 15.40670254  7355
STARLINK-31625          
1 59458U 24068D   24140.52744991 -.00003817  00000+0 -84244-4 0  9999
2 59458  42.9989 187.3046 0001323 248.2910 111.7805 15.40672948  7363
STARLINK-31631          
1 59459U 24068E   24140.51191266  .00004669  00000+0  11903-3 0  9995
2 59459  42.9960 188.0535 0001408 218.9816 141.0939 15.40685124  7350
STARLINK-31620          
1 59460U 24068F   24140.49398550  .00046521  00000+0  11145-2 0  9999
2 59460  42.9975 187.9218 0001306 311.3164  48.7579 15.40690204  7353
STARLINK-31482          
1 59461U 24068G   24140.58334491  .00273831  00000+0  19978-2 0  9992
2 59461  42.9950 180.7052 0003377  29.4411 306.6534 15.71658660  6110
STARLINK-31511          
1 59462U 24068H   24139.83000546 -.00002755  00000+0 -58737-4 0  9995
2 59462  42.9979 191.5341 0001347 305.5990  54.4741 15.40687146  7259
STARLINK-31364          
1 59463U 24068J   24140.44035846  .00042499  00000+0  10176-2 0  9996
2 59463  42.9979 188.3799 0001267 268.3375  91.7336 15.40740701  7346
STARLINK-31597          
1 59464U 24068K   24140.52298355 -.00002917  00000+0 -62648-4 0  9998
2 59464  42.9951 187.2739 0001454  25.9988 334.0941 15.40675339  7310
STARLINK-31621          
1 59465U 24068L   24140.53193076  .00005826  00000+0  14669-3 0  9993
2 59465  42.9987 187.3418 0001144 332.5556  27.5240 15.40686362  7368
STARLINK-31462          
1 59466U 24068M   24140.51847999  .00018296  00000+0  44460-3 0  9999
2 59466  42.9991 187.2200 0001743 247.6689 112.3983 15.40671851  7364
STARLINK-31592          
1 59467U 24068N   24140.34640701 -.00004305  00000+0 -95872-4 0  9995
2 59467  43.0001 188.5249 0002087 236.3891 123.6766 15.40688223  7330
STARLINK-31267          
1 59468U 24068P   24140.55656787  .00009460  00000+0  23343-3 0  9998
2 59468  42.9982 187.5267 0001306 295.2375  64.8346 15.40701992  7362
STARLINK-31381          
1 59469U 24068Q   24140.55432376 -.00001302  00000+0 -23914-4 0  9999
2 59469  42.9978 187.5093 0001319 285.3511  74.7200 15.40692902  7360
STARLINK-31546          
1 59470U 24068R   24140.43811762  .00016334  00000+0  39775-3 0  9998
2 59470  42.9980 188.3578 0000487 220.6538 139.4282 15.40676152  7344
STARLINK-31575          
1 59471U 24068S   24140.43140115  .00005477  00000+0  13840-3 0  9997
2 59471  42.9987 188.3065 0001294 247.5515 112.5204 15.40673947  7348
STARLINK-31375          
1 59472U 24068T   24140.51625416 -.00003411  00000+0 -74512-4 0  9991
2 59472  42.9979 187.2127 0000785 285.3849  74.6921 15.40671561  7367
STARLINK-31610          
1 59473U 24068U   24140.46039544 -.00003049  00000+0 -65813-4 0  9998
2 59473  43.0001 187.6567 0000623 269.9130  90.1655 15.40678903  7353
STARLINK-31581          
1 59474U 24068V   24140.42247856 -.00001057  00000+0 -18084-4 0  9997
2 59474  42.9986 188.2378 0001263 270.1726  89.8986 15.40633456  7342
STARLINK-31566          
1 59475U 24068W   24140.31953233 -.00003755  00000+0 -82745-4 0  9991
2 59475  43.0017 188.3164 0001780 267.4760  92.5893 15.40673868  7333
STARLINK-31515          
1 59476U 24068X   24140.52071695  .00089426  00000+0  21211-2 0  9994
2 59476  42.9979 187.2483 0001615 242.1296 117.9397 15.40727107  7362
STARLINK-31531          
1 59477U 24068Y   24140.50727553 -.00001634  00000+0 -31893-4 0  9990
2 59477  42.9988 187.1435 0001448 257.0375 103.0319 15.40681732  7369
STARLINK-31753          
1 59484U 24071A   24140.24578510 -.00016860  00000+0 -39789-3 0  9998
2 59484  42.9984 147.9567 0000757 340.7413  19.3415 15.40651771  6846
STARLINK-31653          
1 59485U 24071B   24140.21442793 -.00001397  00000+0 -26214-4 0  9998
2 59485  43.0013 147.7084 0001569 236.3395 123.7312 15.40658384  6848
STARLINK-31733          
1 59486U 24071C   24140.48941145 -.00001399  00000+0 -26240-4 0  9994
2 59486  43.0023 146.3405 0001134 237.2287 122.8460 15.40694936  6881
STARLINK-31657          
1 59487U 24071D   24140.23906235 -.00005076  00000+0 -11446-3 0  9996
2 59487  42.9975 147.9021 0000770 283.4462  76.6309 15.40671420  6847
STARLINK-31754          
1 59488U 24071E   24140.19649767 -.00021118  00000+0 -50025-3 0  9997
2 59488  43.0001 147.5749 0000892 279.6752  80.4003 15.40666181  6849
STARLINK-31638          
1 59489U 24071F   24140.46475630 -.00017057  00000+0 -40211-3 0  9997
2 59489  43.0016 146.1473 0001431 231.4400 128.6329 15.40689174  6888
STARLINK-31670          
1 59490U 24071G   24140.45372756  .00006378  00000+0  15992-3 0  9993
2 59490  43.0002 146.9443 0000238  39.7287 320.3587 15.40679302  6874
STARLINK-31712          
1 59491U 24071H   24140.28820129  .00000802  00000+0  26484-4 0  9992
2 59491  43.0011 147.4098 0001694 252.7114 107.3557 15.40676069  6855
STARLINK-31684          
1 59492U 24071J   24139.99528324 -.00035596  00000+0 -85011-3 0  9991
2 59492  42.9992 148.6458 0001398 291.7135  68.3572 15.40655313  6810
STARLINK-31678          
1 59493U 24071K   24140.33334491 -.01362317  00000+0 -33058-1 0  9999
2 59493  42.9997 146.7312 0001554 264.3612 159.2738 15.43028910  6010
STARLINK-31744          
1 59494U 24071L   24140.58334491  .00052647  00000+0  12583-2 0  9997
2 59494  42.9987 145.1956 0001284 285.3087 125.1450 15.40714277  6058
STARLINK-31719          
1 59495U 24071M   24140.42907105  .00001952  00000+0  54010-4 0  9995
2 59495  43.0017 146.7473 0001806 241.8344 118.2330 15.40685688  6872
STARLINK-31728          
1 59496U 24071N   24140.30163990  .00025908  00000+0  62497-3 0  9993
2 59496  42.9990 147.5100 0001585 255.6011 104.4669 15.40718742  6853
STARLINK-31720          
1 59497U 24071P   24140.41338681  .00001928  00000+0  53432-4 0  9993
2 59497  43.0004 146.6260 0000804 250.5867 109.4902 15.40684633  6873
STARLINK-31731          
1 59498U 24071Q   24140.42233627 -.00002760  00000+0 -58826-4 0  9998
2 59498  43.0036 146.6929 0002240 238.6581 121.4056 15.40692148  6871
STARLINK-31742          
1 59499U 24071R   24140.41561653  .00017076  00000+0  41484-3 0  9996
2 59499  43.0010 146.6449 0001459 273.3770  86.6920 15.40720506  6870
STARLINK-31512          
1 59500U 24071S   24140.40441653  .00005256  00000+0  13298-3 0  9994
2 59500  43.0000 146.5554 0000988 224.4683 135.6095 15.40704248  6877
STARLINK-31458          
1 59501U 24071T   24140.42010948  .00002411  00000+0  64991-4 0  9993
2 59501  43.0027 146.6789 0001196 291.3977  68.6752 15.40682570  6877
STARLINK-31357          
1 59502U 24071U   24140.47148494  .00011377  00000+0  27899-3 0  9993
2 59502  43.0008 146.1981 0000693 240.3507 119.7280 15.40722465  6883
STARLINK-31508          
1 59503U 24071V   24140.40220045  .00000992  00000+0  31054-4 0  9990
2 59503  43.0001 146.5374 0001479 221.9368 138.1375 15.40659345  6875
STARLINK-31535          
1 59504U 24071W   24140.58334491  .00027181  00000+0  65551-3 0  9998
2 59504  42.9988 145.0990 0002080 329.8681 119.9104 15.40704126  6045
STARLINK-31533          
1 59505U 24071X   24140.07353708  .00009647  00000+0  23768-3 0  9996
2 59505  42.9964 148.3696 0000758 277.0730  83.0041 15.40728827  6829
STARLINK-31524          
1 59506U 24071Y   24140.58334491 -.00081541  00000+0 -19617-2 0  9993
2 59506  42.9995 145.2841 0000951 263.6270 109.5279 15.40761328  6052
STARLINK-31635          
1 59511U 24073A   24140.41093058 -.00003284  00000+0 -71419-4 0  9992
2 59511  43.0004 116.2339 0001107 240.6305 119.4441 15.40686857  4949
STARLINK-31650          
1 59512U 24073B   24140.58334491  .00039738  00000+0  95509-3 0  9996
2 59512  43.0006 114.7872 0001453 276.3191 147.8432 15.40652813  6133
STARLINK-31658          
1 59513U 24073C   24137.27496709  .00563342  13188-3  16521-2 0  9994
2 59513  42.9980 129.5074 0002744 194.6254 165.4543 15.91910967  4519
STARLINK-31664          
1 59514U 24073D   24140.58334491 -.00036649  00000+0 -87249-3 0  9990
2 59514  43.0001 114.6957 0000782 258.8755 202.4789 15.40762425  6154
STARLINK-31669          
1 59515U 24073E   24140.20974165 -.00015938  00000+0 -37581-3 0  9990
2 59515  42.9989 117.2989 0001280 182.9443 177.1406 15.40641131  6139
